ONEWEB-0108             
1 48076U 21025AL  24039.18273106  .00000121  00000+0  29617-3 0  9992
2 48076  87.9001 131.4176 0001935 114.3558 245.7773 13.13468859140761
ONEWEB-0169             
1 48077U 21025AM  24039.29065156 -.00000204  00000+0 -59303-3 0  9998
2 48077  87.9002 131.4027 0001922 115.0480 245.0848 13.13470238140665
ONEWEB-0176             
1 48210U 21031A   24039.12414723 -.00000114  00000+0 -34117-3 0  9990
2 48210  87.8945 100.8900 0001928 100.6658 259.4688 13.14503618136613
ONEWEB-0184             
1 48211U 21031B   24039.40165747  .00006023  00000+0  16204-1 0  9999
2 48211  87.8945 100.8228 0002994  82.4663 277.6807 13.14485316135331
ONEWEB-0179             
1 48212U 21031C   24038.91481168  .00000192  00000+0  48238-3 0  9998
2 48212  87.8945 100.9186 0001719 101.1353 258.9970 13.14502885135317
ONEWEB-0180             
1 48213U 21031D   24038.87199755  .00000073  00000+0  16250-3 0  9999
2 48213  87.8941 100.9287 0001603  97.1652 262.9660 13.14502747135198
ONEWEB-0218             
1 48214U 21031E   24038.66585305 -.00000171  00000+0 -49535-3 0  9990
2 48214  87.8942 100.9715 0002262  69.9292 290.2081 13.14502552135325
ONEWEB-0209             
1 48215U 21031F   24038.88310189 -.00000064  00000+0 -20682-3 0  9994
2 48215  87.8945 100.9591 0001678 101.7621 258.3697 13.14503263135353
